[{"OBJECT_NAME":"STARLINK-1260","OBJECT_ID":"2020-019AW","EPOCH":"2026-03-09T10:28:29.871840","MEAN_MOTION":15.30197736,"ECCENTRICITY":0.00018207,"INCLINATION":53.1614,"RA_OF_ASC_NODE":130.4178,"ARG_OF_PERICENTER":93.3089,"MEAN_ANOMALY":266.812,"EPHEMERIS_TYPE":0,"CLASSIFICATION_TYPE":"U","NORAD_CAT_ID":45404,"ELEMENT_SET_NO":999,"REV_AT_EPOCH":32993,"BSTAR":0.00014152412,"MEAN_MOTION_DOT":3.834e-5,"MEAN_MOTION_DDOT":0},{"OBJECT_NAME":"TRANSPORTER-1 OBJECT Z","OBJECT_ID":"2021-006Z","EPOCH":"2026-03-09T22:55:57.522432","MEAN_MOTION":15.30965056,"ECCENTRICITY":0.00100878,"INCLINATION":97.2377,"RA_OF_ASC_NODE":113.4736,"ARG_OF_PERICENTER":179.6869,"MEAN_ANOMALY":180.438,"EPHEMERIS_TYPE":0,"CLASSIFICATION_TYPE":"U","NORAD_CAT_ID":47436,"ELEMENT_SET_NO":999,"REV_AT_EPOCH":28420,"BSTAR":0.00024088983,"MEAN_MOTION_DOT":7.143e-5,"MEAN_MOTION_DDOT":0}]
